KUIPER-00079            
1 64826U 25151L   25264.58335648 -.01425031  00000+0 -14725+0 0  9996
2 64826  51.8966 328.5056 0011569  35.4222 195.9520 14.93244556  5483
KUIPER-00080            
1 64827U 25151M   25264.58335648 -.01473787  00000+0 -15323+0 0  9993
2 64827  51.8969 328.6064 0006415  58.5369 260.6749 14.92629502  5849
KUIPER-00082            
1 64828U 25151N   25264.58335648 -.00747538  00000+0 -28979-1 0  9994
2 64828  51.8844 323.0679 0007701  29.2387  89.5175 15.27946885  4011
KUIPER-00083            
1 64829U 25151P   25264.58335648 -.01049206  00000+0 -71780-1 0  9991
2 64829  51.8864 325.6065 0010652  32.3654 212.2260 15.08382601  5067
KUIPER-00084            
1 64830U 25151Q   25264.44959234  .00005413  00000+0  74011-3 0  9992
2 64830  51.8999 333.8690 0011405  23.9882 336.1610 14.79817654 10170
KUIPER-00085            
1 64831U 25151R   25264.58335648 -.00546543  00000+0 -22695-1 0  9990
2 64831  51.8852 323.1050 0008566  27.4426  40.6552 15.25711406  5792
KUIPER-00086            
1 64832U 25151S   25264.58335648 -.00949340  00000+0 -80532-1 0  9997
2 64832  51.8917 327.0424 0010394  34.9784 207.0960 15.00120907  5778
KUIPER-00087            
1 64833U 25151T   25264.47046368  .00033480  00000+0  91394-3 0  9991
2 64833  51.8791 323.2981 0007520  25.9464 334.1898 15.37091598 10318
